MESON-1                 
1 59131U 24043AK  26068.90019075  .00008544  00000+0  29748-3 0  9998
2 59131  97.5469 205.2839 0009545 227.1432 132.9007 15.29893494111890
STARLINK-34464          
1 64664U 25139A   26068.44016622  .00023101  00000+0  78954-3 0  9995
2 64664  53.1574 128.3623 0000686  92.5604 267.5476 15.30205407 40248
